[{"OBJECT_NAME":"OBJECT H","OBJECT_ID":"2024-092H","EPOCH":"2026-03-09T22:10:57.432576","MEAN_MOTION":14.31801309,"ECCENTRICITY":0.00131217,"INCLINATION":98.6549,"RA_OF_ASC_NODE":188.1402,"ARG_OF_PERICENTER":138.5744,"MEAN_ANOMALY":221.6437,"EPHEMERIS_TYPE":0,"CLASSIFICATION_TYPE":"U","NORAD_CAT_ID":59780,"ELEMENT_SET_NO":999,"REV_AT_EPOCH":9469,"BSTAR":0.00013575326,"MEAN_MOTION_DOT":3.19e-6,"MEAN_MOTION_DDOT":0},{"OBJECT_NAME":"CZ-6A DEB","OBJECT_ID":"2022-151AHY","EPOCH":"2026-03-09T22:05:18.876768","MEAN_MOTION":14.14014731,"ECCENTRICITY":0.0086097,"INCLINATION":98.9033,"RA_OF_ASC_NODE":67.709,"ARG_OF_PERICENTER":292.5469,"MEAN_ANOMALY":66.6609,"EPHEMERIS_TYPE":0,"CLASSIFICATION_TYPE":"U","NORAD_CAT_ID":58430,"ELEMENT_SET_NO":999,"REV_AT_EPOCH":6487,"BSTAR":0.0032603644,"MEAN_MOTION_DOT":6.379e-5,"MEAN_MOTION_DDOT":0}]
